NORAD_CAT_ID,OBJECT_NAME,OBJECT_TYPE,EPOCH,MEAN_MOTION,ECCENTRICITY,INCLINATION,RA_OF_ASC_NODE,ARG_OF_PERICENTER,MEAN_ANOMALY,BSTAR,MEAN_MOTION_DOT,MEAN_MOTION_DDOT,TLE_LINE0,TLE_LINE1,TLE_LINE2,SEMIMAJOR_AXIS,PERIOD,APOGEE,PERIGEE,DECAYED
52845.0,STARLINK-4168,PAYLOAD,2024-08-06 23:47:24,15.08855515,0.0001454,53.2163,116.5561,78.9731,281.1424,0.001137,0.00017861,0.0,0 STARLINK-4168,1 52845U 22062R   24219.99125426  .00017861  00000-0  11370-2 0  9999,2 52845  53.2163 116.5561 0001454  78.9731 281.1424 15.08855515118274,6917.833,95.437,540.704,538.692,0.0
52845.0,STARLINK-4168,PAYLOAD,2024-08-07 20:27:24,15.08860963,0.0001593,53.2167,112.6883,82.5889,277.5284,0.0007647,0.0001191,0.0,0 STARLINK-4168,1 52845U 22062R   24220.85236985  .00011910  00000-0  76470-3 0  9991,2 52845  53.2167 112.6883 0001593  82.5889 277.5284 15.08860963118895,6917.816,95.436,540.783,538.579,0.0
52845.0,STARLINK-4168,PAYLOAD,2024-08-08 02:48:56,15.08866822,0.0001646,53.217,111.4973,112.1476,247.9691,0.0009034,0.00014129,0.0,0 STARLINK-4168,1 52845U 22062R   24221.11732427  .00014129  00000-0  90340-3 0  9990,2 52845  53.2170 111.4973 0001646 112.1476 247.9691 15.08866822118441,6917.798,95.436,540.802,538.525,0.0
52845.0,STARLINK-4168,PAYLOAD,2024-08-08 21:53:34,15.08846501,0.0001678,53.2166,107.9316,104.8951,255.2227,0.0007335,0.00011407,0.0,0 STARLINK-4168,1 52845U 22062R   24221.91220747  .00011407  00000-0  73350-3 0  9993,2 52845  53.2166 107.9316 0001678 104.8951 255.2227 15.08846501119055,6917.861,95.437,540.886,538.565,0.0
52845.0,STARLINK-4168,PAYLOAD,2024-08-08 23:28:57,15.08857457,0.0001492,53.2164,107.6361,98.5666,261.5496,0.00128,0.00020152,0.0,0 STARLINK-4168,1 52845U 22062R   24221.97844650  .00020152  00000-0  12800-2 0  9993,2 52845  53.2164 107.6361 0001492  98.5666 261.5496 15.08857457118572,6917.827,95.436,540.724,538.66,0.0
52845.0,STARLINK-4168,PAYLOAD,2024-08-09 02:39:43,15.08872338,0.0001466,53.216,107.0391,94.9795,265.1365,0.0020854,0.00033087,0.0,0 STARLINK-4168,1 52845U 22062R   24222.11092479  .00033087  00000-0  20854-2 0  9993,2 52845  53.2160 107.0391 0001466  94.9795 265.1365 15.08872338119086,6917.782,95.436,540.661,538.632,0.0
52845.0,STARLINK-4168,PAYLOAD,2024-08-09 09:01:16,15.0885141,0.0002018,53.2167,105.8489,87.2918,272.8305,0.00055505,8.559e-05,0.0,0 STARLINK-4168,1 52845U 22062R   24222.37588820  .00008559  00000-0  55505-3 0  9999,2 52845  53.2167 105.8489 0002018  87.2918 272.8305 15.08851410119125,6917.846,95.437,541.107,538.314,0.0
52845.0,STARLINK-4168,PAYLOAD,2024-08-09 20:08:58,15.0883006,0.00016,53.2181,103.7719,96.1355,263.9819,0.00043275,6.604e-05,0.0,0 STARLINK-4168,1 52845U 22062R   24222.83956987  .00006604  00000-0  43275-3 0  9993,2 52845  53.2181 103.7719 0001600  96.1355 263.9819 15.08830060119190,6917.911,95.438,540.883,538.669,0.0
52845.0,STARLINK-4168,PAYLOAD,2024-08-09 21:44:21,15.08834918,0.0001519,53.2182,103.4745,94.6696,265.4469,0.00016189,2.289e-05,0.0,0 STARLINK-4168,1 52845U 22062R   24222.90580850  .00002289  00000-0  16189-3 0  9992,2 52845  53.2182 103.4745 0001519  94.6696 265.4469 15.08834918118718,6917.896,95.438,540.812,538.71,0.0
52845.0,STARLINK-4168,PAYLOAD,2024-08-09 23:19:44,15.08843352,0.0001427,53.2156,103.1717,94.9547,265.1608,0.00043435,6.632e-05,0.0,0 STARLINK-4168,1 52845U 22062R   24222.97204726  .00006632  00000-0  43435-3 0  9994,2 52845  53.2156 103.1717 0001427  94.9547 265.1608 15.08843352119211,6917.87,95.437,540.722,538.748,0.0
52845.0,STARLINK-4168,PAYLOAD,2024-08-10 21:35:09,15.0884162,0.0002032,53.2151,99.0091,55.2377,304.8806,0.00048593,7.454e-05,0.0,0 STARLINK-4168,1 52845U 22062R   24223.89941625  .00007454  00000-0  48593-3 0  9995,2 52845  53.2151  99.0091 0002032  55.2377 304.8806 15.08841620119350,6917.875,95.437,541.146,538.335,0.0
52845.0,STARLINK-4168,PAYLOAD,2024-08-11 00:45:55,15.08866905,0.0001578,53.2155,98.415,93.4462,266.6711,0.0014562,0.00022981,0.0,0 STARLINK-4168,1 52845U 22062R   24224.03188969  .00022981  00000-0  14562-2 0  9996,2 52845  53.2155  98.4150 0001578  93.4462 266.6711 15.08866905119371,6917.798,95.436,540.755,538.572,0.0
52845.0,STARLINK-4168,PAYLOAD,2024-08-11 08:42:51,15.08846419,0.0002936,53.2152,96.9287,74.3429,285.7887,0.0013619,0.00021458,0.0,0 STARLINK-4168,1 52845U 22062R   24224.36309633  .00021458  00000-0  13619-2 0  9995,2 52845  53.2152  96.9287 0002936  74.3429 285.7887 15.08846419119422,6917.861,95.437,541.757,537.695,0.0
52845.0,STARLINK-4168,PAYLOAD,2024-08-11 21:25:56,15.0884474,0.0001522,53.215,94.5487,69.9751,290.1405,0.0013252,0.00020868,0.0,0 STARLINK-4168,1 52845U 22062R   24224.89301257  .00020868  00000-0  13252-2 0  9994,2 52845  53.2150  94.5487 0001522  69.9751 290.1405 15.08844740119504,6917.866,95.437,540.784,538.678,0.0
52845.0,STARLINK-4168,PAYLOAD,2024-08-12 00:36:42,15.08863153,0.0001531,53.2157,93.9546,69.9219,290.1938,0.0027406,0.00043627,0.0,0 STARLINK-4168,1 52845U 22062R   24225.02549080  .00043627  00000-0  27406-2 0  9992,2 52845  53.2157  93.9546 0001531  69.9219 290.1938 15.08863153119521,6917.81,95.436,540.734,538.616,0.0
52845.0,STARLINK-4168,PAYLOAD,2024-08-12 08:33:38,15.08856582,0.0001389,53.2159,92.4655,93.5848,266.5303,0.0012443,0.00019579,0.0,0 STARLINK-4168,1 52845U 22062R   24225.35669013  .00019579  00000-0  12443-2 0  9991,2 52845  53.2159  92.4655 0001389  93.5848 266.5303 15.08856582119576,6917.83,95.437,540.656,538.734,0.0
52845.0,STARLINK-4168,PAYLOAD,2024-08-12 22:52:05,15.08899047,0.0001524,53.2155,89.79,93.1894,266.9273,0.0033278,0.0005316,0.0,0 STARLINK-4168,1 52845U 22062R   24225.95284039  .00053160  00000-0  33278-2 0  9991,2 52845  53.2155  89.7900 0001524  93.1894 266.9273 15.08899047119171,6917.7,95.434,540.619,538.511,0.0
52845.0,STARLINK-4168,PAYLOAD,2024-08-13 08:24:24,15.08843907,0.0001734,53.2159,88.0067,80.9041,279.2147,-0.00011067,-2.049e-05,0.0,0 STARLINK-4168,1 52845U 22062R   24226.35028324 -.00002049  00000-0 -11067-3 0  9994,2 52845  53.2159  88.0067 0001734  80.9041 279.2147 15.08843907119724,6917.868,95.437,540.933,538.534,0.0
52845.0,STARLINK-4168,PAYLOAD,2024-08-13 14:45:58,15.08800494,0.0001935,53.2179,86.8164,104.0034,256.1173,-0.00017264,-3.032e-05,0.0,0 STARLINK-4168,1 52845U 22062R   24226.61525578 -.00003032  00000-0 -17264-3 0  9994,2 52845  53.2179  86.8164 0001935 104.0034 256.1173 15.08800494119270,6918.001,95.44,541.205,538.528,0.0
52845.0,STARLINK-4168,PAYLOAD,2024-08-13 21:07:31,15.08787941,0.0001779,53.2176,85.6273,96.0478,264.0717,0.0011351,0.00017798,0.0,0 STARLINK-4168,1 52845U 22062R   24226.88022601  .00017798  00000-0  11351-2 0  9994,2 52845  53.2176  85.6273 0001779  96.0478 264.0717 15.08787941119805,6918.04,95.441,541.135,538.674,0.0
52845.0,STARLINK-4168,PAYLOAD,2024-08-14 08:15:14,15.08832773,0.0001799,53.2176,83.5459,90.9246,269.1952,0.003109,0.0004953,0.0,0 STARLINK-4168,1 52845U 22062R   24227.34391704  .00049530  00000-0  31090-2 0  9990,2 52845  53.2176  83.5459 0001799  90.9246 269.1952 15.08832773119874,6917.902,95.438,541.012,538.523,0.0
52845.0,STARLINK-4168,PAYLOAD,2024-08-14 19:22:56,15.08861935,0.0001817,53.2167,81.4658,84.5529,275.567,0.0023127,0.00036733,0.0,0 STARLINK-4168,1 52845U 22062R   24227.80759529  .00036733  00000-0  23127-2 0  9997,2 52845  53.2167  81.4658 0001817  84.5529 275.5670 15.08861935119944,6917.813,95.436,540.935,538.421,0.0
52845.0,STARLINK-4168,PAYLOAD,2024-08-14 20:58:19,15.08863886,0.0001887,53.2166,81.1714,72.6347,287.4851,0.0021835,0.00034657,0.0,0 STARLINK-4168,1 52845U 22062R   24227.87383544  .00034657  00000-0  21835-2 0  9991,2 52845  53.2166  81.1714 0001887  72.6347 287.4851 15.08863886119463,6917.807,95.436,540.978,538.367,0.0
52845.0,STARLINK-4168,PAYLOAD,2024-08-15 20:49:05,15.08888,0.0002257,53.2182,76.704,81.673,278.4518,0.0021957,0.00034876,0.0,0 STARLINK-4168,1 52845U 22062R   24228.86742500  .00034876  00000-0  21957-2 0  9990,2 52845  53.2182  76.7040 0002257  81.6730 278.4518 15.08888000120109,6917.734,95.435,541.16,538.037,0.0
52845.0,STARLINK-4168,PAYLOAD,2024-08-17 03:01:24,15.08814169,0.0001848,53.2169,71.0589,68.2338,291.8851,0.00084226,0.00013133,0.0,0 STARLINK-4168,1 52845U 22062R   24230.12597680  .00013133  00000-0  84226-3 0  9991,2 52845  53.2169  71.0589 0001848  68.2338 291.8851 15.08814169120294,6917.959,95.439,541.103,538.546,0.0
52845.0,STARLINK-4168,PAYLOAD,2024-08-18 20:21:26,15.08854019,0.0001448,53.2173,63.3264,98.9289,261.1867,0.00072936,0.00011343,0.0,0 STARLINK-4168,1 52845U 22062R   24231.84821902  .00011343  00000-0  72936-3 0  9994,2 52845  53.2173  63.3264 0001448  98.9289 261.1867 15.08854019120558,6917.838,95.437,540.704,538.701,0.0
52845.0,STARLINK-4168,PAYLOAD,2024-08-19 05:53:44,15.08845626,0.0001661,53.2159,61.5392,92.4862,267.632,0.00025707,3.806e-05,0.0,0 STARLINK-4168,1 52845U 22062R   24232.24565968  .00003806  00000-0  25707-3 0  9995,2 52845  53.2159  61.5392 0001661  92.4862 267.6320 15.08845626120613,6917.863,95.437,540.877,538.579,0.0
52845.0,STARLINK-4168,PAYLOAD,2024-08-20 12:06:04,15.08838959,0.0001147,53.2174,55.8936,89.5324,270.5799,7.5519e-05,9.14e-06,0.0,0 STARLINK-4168,1 52845U 22062R   24233.50422273  .00000914  00000-0  75519-4 0  9990,2 52845  53.2174  55.8936 0001147  89.5324 270.5799 15.08838959120804,6917.884,95.438,540.542,538.955,0.0
52845.0,STARLINK-4168,PAYLOAD,2024-08-20 18:27:37,15.08848652,0.0001604,53.2171,54.703,90.2482,269.8694,0.0002466,3.64e-05,0.0,0 STARLINK-4168,1 52845U 22062R   24233.76918068  .00003640  00000-0  24660-3 0  9999,2 52845  53.2171  54.7030 0001604  90.2482 269.8694 15.08848652120846,6917.854,95.437,540.829,538.609,0.0
52845.0,STARLINK-4168,PAYLOAD,2024-08-21 15:07:38,15.08838379,0.00013,53.2166,50.8381,84.3907,275.7233,0.00018365,2.636e-05,0.0,0 STARLINK-4168,1 52845U 22062R   24234.63030811  .00002636  00000-0  18365-3 0  9996,2 52845  53.2166  50.8381 0001300  84.3907 275.7233 15.08838379120485,6917.885,95.438,540.65,538.851,0.0
